{
    "links": {
        "self": "http://www.neowsapp.com/rest/v1/neo/3802386?api_key=iIulBulltgU6a56xZRHN4H3l9WmuAYTsLGpBGhQ2"
    },
    "id": "3802386",
    "neo_reference_id": "3802386",
    "name": "(2018 FJ29)",
    "designation": "2018 FJ29",
    "nasa_jpl_url": "http://ssd.jpl.nasa.gov/sbdb.cgi?sstr=3802386",
    "absolute_magnitude_h": 22.7,
    "estimated_diameter": {
        "kilometers": {
            "estimated_diameter_min": 0.0766575574,
            "estimated_diameter_max": 0.1714115092
        },
        "meters": {
            "estimated_diameter_min": 76.6575573531,
            "estimated_diameter_max": 171.4115092306
        },
        "miles": {
            "estimated_diameter_min": 0.0476327831,
            "estimated_diameter_max": 0.1065101409
        },
        "feet": {
            "estimated_diameter_min": 251.5011804664,
            "estimated_diameter_max": 562.3737359442
        }
    },
    "is_potentially_hazardous_asteroid": false,
    "close_approach_data": [
        {
            "close_approach_date": "2018-04-16",
            "close_approach_date_full": "2018-Apr-16 14:28",
            "epoch_date_close_approach": 1523888880000,
            "relative_velocity": {
                "kilometers_per_second": "11.3310288127",
                "kilometers_per_hour": "40791.7037258939",
                "miles_per_hour": "25346.3783512367"
            },
            "miss_distance": {
                "astronomical": "0.0779865528",
                "lunar": "30.3367690392",
                "kilometers": "11666622.187522536",
                "miles": "7249302.8726855568"
            },
            "orbiting_body": "Earth"
        }
    ],
    "orbital_data": {
        "orbit_id": "7",
        "orbit_determination_date": "2018-04-17 06:32:56",
        "first_observation_date": "2018-03-29",
        "last_observation_date": "2018-04-16",
        "data_arc_in_days": 18,
        "observations_used": 49,
        "orbit_uncertainty": "7",
        "minimum_orbit_intersection": ".0144465",
        "jupiter_tisserand_invariant": "3.770",
        "epoch_osculation": "2459000.5",
        "eccentricity": ".4841183628914386",
        "semi_major_axis": "1.911675300970723",
        "inclination": "8.860440357497202",
        "ascending_node_longitude": "33.05015214442207",
        "orbital_period": "965.4274000086388",
        "perihelion_distance": ".9861981838847789",
        "perihelion_argument": "208.5971617516785",
        "aphelion_distance": "2.837152418056668",
        "perihelion_time": "2459217.015465609867",
        "mean_anomaly": "279.2631495451086",
        "mean_motion": ".3728918404395594",
        "equinox": "J2000",
        "orbit_class": {
            "orbit_class_type": "APO",
            "orbit_class_description": "Near-Earth asteroid orbits which cross the Earth’s orbit similar to that of 1862 Apollo",
            "orbit_class_range": "a (semi-major axis) > 1.0 AU; q (perihelion) < 1.017 AU"
        }
    },
    "is_sentry_object": false
}